start=new Date('2022-01-07T00:00:00.000Z').valueOf();
sats=[{"MEAN_MOTION":"15.06402531","COUNTRY_CODE":"US","SEMIMAJOR_AXIS":"6925.341","REF_FRAME":"TEME","OBJECT_TYPE":"PAYLOAD","ECCENTRICITY":"0.00012080","CLASSIFICATION_TYPE":"U","PERIOD":"95.592","TIME_SYSTEM":"UTC","RCS_SIZE":"LARGE","REV_AT_EPOCH":"3874","NORAD_CAT_ID":"48289","ARG_OF_PERICENTER":"78.4722","BSTAR":"-0.00005683600000","RA_OF_ASC_NODE":"79.0994","EPOCH":"2022-01-06T13:59:43.646784","OBJECT_ID":"2021-036P","EPHEMERIS_TYPE":"0","SITE":"AFETR","CENTER_NAME":"EARTH","ELEMENT_SET_NO":"999","DECAY_DATE":null,"MEAN_ELEMENT_THEORY":"SGP4","INCLINATION":"53.0553","GP_ID":"193324083","MEAN_MOTION_DOT":"-0.00001128","OBJECT_NAME":"STARLINK-2545","PERIAPSIS":"546.369","MEAN_ANOMALY":"281.6402","MEAN_MOTION_DDOT":"0.0000000000000","APOAPSIS":"548.042","FILE":"3265629","TLE_LINE2":"2 48289  53.0553  79.0994 0001208  78.4722 281.6402 15.06402531 38745","TLE_LINE1":"1 48289U 21036P   22006.58314406 -.00001128  00000-0 -56836-4 0  9990","LAUNCH_DATE":"2021-04-29"},{"APOAPSIS":"548.003","FILE":"3265870","MEAN_MOTION_DDOT":"0.0000000000000","MEAN_MOTION_DOT":"0.00002164","GP_ID":"193353484","PERIAPSIS":"546.437","MEAN_ANOMALY":"289.8586","OBJECT_NAME":"STARLINK-2540","LAUNCH_DATE":"2021-04-29","TLE_LINE2":"2 48290  53.0556  78.5424 0001131  70.2525 289.8586 15.06397826 38763","TLE_LINE1":"1 48290U 21036Q   22006.71217611  .00002164  00000-0  16414-3 0  9993","REV_AT_EPOCH":"3876","RCS_SIZE":"LARGE","EPOCH":"2022-01-06T17:05:32.015904","BSTAR":"0.00016414000000","RA_OF_ASC_NODE":"78.5424","ARG_OF_PERICENTER":"70.2525","NORAD_CAT_ID":"48290","ECCENTRICITY":"0.00011310","OBJECT_TYPE":"PAYLOAD","REF_FRAME":"TEME","SEMIMAJOR_AXIS":"6925.355","COUNTRY_CODE":"US","MEAN_MOTION":"15.06397826","TIME_SYSTEM":"UTC","PERIOD":"95.592","CLASSIFICATION_TYPE":"U","CENTER_NAME":"EARTH","SITE":"AFETR","ELEMENT_SET_NO":"999","EPHEMERIS_TYPE":"0","INCLINATION":"53.0556","MEAN_ELEMENT_THEORY":"SGP4","DECAY_DATE":null,"OBJECT_ID":"2021-036Q"},{"RCS_SIZE":"LARGE","REV_AT_EPOCH":"3876","ARG_OF_PERICENTER":"77.2834","NORAD_CAT_ID":"48291","EPOCH":"2022-01-06T17:00:12.544992","RA_OF_ASC_NODE":"78.5512","BSTAR":"0.00007695000000","SEMIMAJOR_AXIS":"6925.378","REF_FRAME":"TEME","MEAN_MOTION":"15.06390395","COUNTRY_CODE":"US","ECCENTRICITY":"0.00014080","OBJECT_TYPE":"PAYLOAD","CLASSIFICATION_TYPE":"U","TIME_SYSTEM":"UTC","PERIOD":"95.593","EPHEMERIS_TYPE":"0","ELEMENT_SET_NO":"999","SITE":"AFETR","CENTER_NAME":"EARTH","DECAY_DATE":null,"INCLINATION":"53.0558","MEAN_ELEMENT_THEORY":"SGP4","OBJECT_ID":"2021-036R","MEAN_MOTION_DDOT":"0.0000000000000","APOAPSIS":"548.218","FILE":"3265870","MEAN_MOTION_DOT":"0.00000865","GP_ID":"193353734","OBJECT_NAME":"STARLINK-2555","PERIAPSIS":"546.268","MEAN_ANOMALY":"282.8312","LAUNCH_DATE":"2021-04-29","TLE_LINE2":"2 48291  53.0558  78.5512 0001408  77.2834 282.8312 15.06390395 38765","TLE_LINE1":"1 48291U 21036R   22006.70847853  .00000865  00000-0  76950-4 0  9998"},{"FILE":"3265870","APOAPSIS":"548.122","MEAN_MOTION_DDOT":"0.0000000000000","PERIAPSIS":"546.341","MEAN_ANOMALY":"282.1951","OBJECT_NAME":"STARLINK-2542","GP_ID":"193354986","MEAN_MOTION_DOT":"0.00001378","LAUNCH_DATE":"2021-04-29","TLE_LINE1":"1 48292U 21036S   22006.63748987  .00001378  00000-0  11138-3 0  9995","TLE_LINE2":"2 48292  53.0559  78.8662 0001286  77.9182 282.1951 15.06394054 38750","RA_OF_ASC_NODE":"78.8662","BSTAR":"0.00011138000000","EPOCH":"2022-01-06T15:17:59.124768","NORAD_CAT_ID":"48292","ARG_OF_PERICENTER":"77.9182","REV_AT_EPOCH":"3875","RCS_SIZE":"LARGE","PERIOD":"95.593","TIME_SYSTEM":"UTC","CLASSIFICATION_TYPE":"U","OBJECT_TYPE":"PAYLOAD","ECCENTRICITY":"0.00012860","MEAN_MOTION":"15.06394054","COUNTRY_CODE":"US","SEMIMAJOR_AXIS":"6925.367","REF_FRAME":"TEME","MEAN_ELEMENT_THEORY":"SGP4","INCLINATION":"53.0559","DECAY_DATE":null,"SITE":"AFETR","CENTER_NAME":"EARTH","ELEMENT_SET_NO":"999","EPHEMERIS_TYPE":"0","OBJECT_ID":"2021-036S"},{"OBJECT_NAME":"STARLINK-2550","PERIAPSIS":"546.415","MEAN_ANOMALY":"277.3005","GP_ID":"193323583","MEAN_MOTION_DOT":"-0.00000060","MEAN_MOTION_DDOT":"0.0000000000000","FILE":"3265629","APOAPSIS":"548.016","TLE_LINE1":"1 48293U 21036T   22006.56840009 -.00000060  00000-0  14828-4 0  9994","TLE_LINE2":"2 48293  53.0554  79.1735 0001156  82.8115 277.3005 15.06399392 38743","LAUNCH_DATE":"2021-04-29","CLASSIFICATION_TYPE":"U","PERIOD":"95.592","TIME_SYSTEM":"UTC","COUNTRY_CODE":"US","MEAN_MOTION":"15.06399392","SEMIMAJOR_AXIS":"6925.350","REF_FRAME":"TEME","OBJECT_TYPE":"PAYLOAD","ECCENTRICITY":"0.00011560","NORAD_CAT_ID":"48293","ARG_OF_PERICENTER":"82.8115","RA_OF_ASC_NODE":"79.1735","BSTAR":"0.00001482800000","EPOCH":"2022-01-06T13:38:29.767776","RCS_SIZE":"LARGE","REV_AT_EPOCH":"3874","OBJECT_ID":"2021-036T","DECAY_DATE":null,"MEAN_ELEMENT_THEORY":"SGP4","INCLINATION":"53.0554","EPHEMERIS_TYPE":"0","ELEMENT_SET_NO":"999","SITE":"AFETR","CENTER_NAME":"EARTH"},{"DECAY_DATE":null,"MEAN_ELEMENT_THEORY":"SGP4","INCLINATION":"53.0560","EPHEMERIS_TYPE":"0","SITE":"AFETR","CENTER_NAME":"EARTH","ELEMENT_SET_NO":"999","OBJECT_ID":"2021-036U","NORAD_CAT_ID":"48294","ARG_OF_PERICENTER":"71.6742","RA_OF_ASC_NODE":"79.5024","BSTAR":"0.00000742440000","EPOCH":"2022-01-06T11:57:38.930400","RCS_SIZE":"LARGE","REV_AT_EPOCH":"3873","CLASSIFICATION_TYPE":"U","PERIOD":"95.592","TIME_SYSTEM":"UTC","MEAN_MOTION":"15.06398746","COUNTRY_CODE":"US","SEMIMAJOR_AXIS":"6925.352","REF_FRAME":"TEME","OBJECT_TYPE":"PAYLOAD","ECCENTRICITY":"0.00014880","LAUNCH_DATE":"2021-04-29","TLE_LINE1":"1 48294U 21036U   22006.49836725 -.00000171  00000-0  74244-5 0  9999","TLE_LINE2":"2 48294  53.0560  79.5024 0001488  71.6742 288.4408 15.06398746 38737","MEAN_MOTION_DDOT":"0.0000000000000","APOAPSIS":"548.248","FILE":"3265629","OBJECT_NAME":"STARLINK-2533","PERIAPSIS":"546.187","MEAN_ANOMALY":"288.4408","GP_ID":"193324333","MEAN_MOTION_DOT":"-0.00000171"},{"TLE_LINE1":"1 48295U 21036V   22006.62737210  .00000034  00000-0  21157-4 0  9995","TLE_LINE2":"2 48295  53.0533  78.9113 0001322  85.2251 274.8889 15.06402344 38757","LAUNCH_DATE":"2021-04-29","MEAN_ANOMALY":"274.8889","PERIAPSIS":"546.291","OBJECT_NAME":"STARLINK-2535","MEAN_MOTION_DOT":"0.00000034","GP_ID":"193354235","FILE":"3265870","APOAPSIS":"548.122","MEAN_MOTION_DDOT":"0.0000000000000","OBJECT_ID":"2021-036V","INCLINATION":"53.0533","MEAN_ELEMENT_THEORY":"SGP4","DECAY_DATE":null,"ELEMENT_SET_NO":"999","SITE":"AFETR","CENTER_NAME":"EARTH","EPHEMERIS_TYPE":"0","TIME_SYSTEM":"UTC","PERIOD":"95.592","CLASSIFICATION_TYPE":"U","ECCENTRICITY":"0.00013220","OBJECT_TYPE":"PAYLOAD","SEMIMAJOR_AXIS":"6925.341","REF_FRAME":"TEME","MEAN_MOTION":"15.06402344","COUNTRY_CODE":"US","EPOCH":"2022-01-06T15:03:24.949440","BSTAR":"0.00002115700000","RA_OF_ASC_NODE":"78.9113","ARG_OF_PERICENTER":"85.2251","NORAD_CAT_ID":"48295","REV_AT_EPOCH":"3875","RCS_SIZE":"LARGE"},{"RCS_SIZE":"LARGE","REV_AT_EPOCH":"3873","NORAD_CAT_ID":"48296","ARG_OF_PERICENTER":"85.8464","RA_OF_ASC_NODE":"79.5277","BSTAR":"-0.00000761180000","EPOCH":"2022-01-06T11:47:02.464800","COUNTRY_CODE":"US","MEAN_MOTION":"15.06383453","SEMIMAJOR_AXIS":"6925.399","REF_FRAME":"TEME","OBJECT_TYPE":"PAYLOAD","ECCENTRICITY":"0.00011150","CLASSIFICATION_TYPE":"U","PERIOD":"95.593","TIME_SYSTEM":"UTC","EPHEMERIS_TYPE":"0","SITE":"AFETR","ELEMENT_SET_NO":"999","CENTER_NAME":"EARTH","DECAY_DATE":null,"MEAN_ELEMENT_THEORY":"SGP4","INCLINATION":"53.0550","OBJECT_ID":"2021-036W","MEAN_MOTION_DDOT":"0.0000000000000","APOAPSIS":"548.036","FILE":"3265870","GP_ID":"193354486","MEAN_MOTION_DOT":"-0.00000395","OBJECT_NAME":"STARLINK-2546","MEAN_ANOMALY":"274.2653","PERIAPSIS":"546.492","LAUNCH_DATE":"2021-04-29","TLE_LINE2":"2 48296  53.0550  79.5277 0001115  85.8464 274.2653 15.06383453 38737","TLE_LINE1":"1 48296U 21036W   22006.49100075 -.00000395  00000-0 -76118-5 0  9994"},{"LAUNCH_DATE":"2021-04-29","TLE_LINE1":"1 48297U 21036X   22006.68634846 -.00000331  00000-0 -32945-5 0  9994","TLE_LINE2":"2 48297  53.0546  78.6501 0001381  76.2283 283.8859 15.06397347 38765","APOAPSIS":"548.178","FILE":"3265870","MEAN_MOTION_DDOT":"0.0000000000000","MEAN_ANOMALY":"283.8859","PERIAPSIS":"546.265","OBJECT_NAME":"STARLINK-2544","GP_ID":"193355237","MEAN_MOTION_DOT":"-0.00000331","MEAN_ELEMENT_THEORY":"SGP4","INCLINATION":"53.0546","DECAY_DATE":null,"SITE":"AFETR","ELEMENT_SET_NO":"999","CENTER_NAME":"EARTH","EPHEMERIS_TYPE":"0","OBJECT_ID":"2021-036X","RA_OF_ASC_NODE":"78.6501","BSTAR":"-0.00000329450000","EPOCH":"2022-01-06T16:28:20.506944","NORAD_CAT_ID":"48297","ARG_OF_PERICENTER":"76.2283","REV_AT_EPOCH":"3876","RCS_SIZE":"LARGE","PERIOD":"95.592","TIME_SYSTEM":"UTC","CLASSIFICATION_TYPE":"U","OBJECT_TYPE":"PAYLOAD","ECCENTRICITY":"0.00013810","COUNTRY_CODE":"US","MEAN_MOTION":"15.06397347","SEMIMAJOR_AXIS":"6925.357","REF_FRAME":"TEME"},{"MEAN_ANOMALY":"274.2071","PERIAPSIS":"546.234","OBJECT_NAME":"STARLINK-2559","MEAN_MOTION_DOT":"-0.00000080","GP_ID":"193353485","APOAPSIS":"548.217","FILE":"3265870","MEAN_MOTION_DDOT":"0.0000000000000","TLE_LINE1":"1 48298U 21036Y   22006.61631775 -.00000080  00000-0  13535-4 0  9999","TLE_LINE2":"2 48298  53.0557  78.9661 0001432  85.9081 274.2071 15.06396017 38750","LAUNCH_DATE":"2021-04-29","TIME_SYSTEM":"UTC","PERIOD":"95.592","CLASSIFICATION_TYPE":"U","ECCENTRICITY":"0.00014320","OBJECT_TYPE":"PAYLOAD","REF_FRAME":"TEME","SEMIMAJOR_AXIS":"6925.361","MEAN_MOTION":"15.06396017","COUNTRY_CODE":"US","EPOCH":"2022-01-06T14:47:29.853600","BSTAR":"0.00001353500000","RA_OF_ASC_NODE":"78.9661","ARG_OF_PERICENTER":"85.9081","NORAD_CAT_ID":"48298","REV_AT_EPOCH":"3875","RCS_SIZE":"LARGE","OBJECT_ID":"2021-036Y","INCLINATION":"53.0557","MEAN_ELEMENT_THEORY":"SGP4","DECAY_DATE":null,"ELEMENT_SET_NO":"999","SITE":"AFETR","CENTER_NAME":"EARTH","EPHEMERIS_TYPE":"0"}];
